CZ-2C R/B               
1 52794U 22058K   25321.88448220  .00026050  00000+0  49421-3 0  9998
2 52794  50.1897 170.1416 0048297  95.4750 265.1730 15.46809505192783
CZ-2C R/B               
1 54039U 22132E   25321.94026420  .00029900  00000+0  47637-3 0  9990
2 54039  97.2949 317.7040 0023250 138.9820 221.3188 15.52895172172985
GSLV R/B                
1 54149U 22138AN  25322.17389243  .00003166  00000+0  27910-3 0  9997
2 54149  87.3855 203.6966 0020926 190.1092 169.9721 14.95954357167252
XRISM                   
1 57800U 23137A   25322.11456300  .00007390  00000+0  43776-3 0  9998
2 57800  31.0029 284.4946 0007863 354.4739   5.5811 15.10001921120905
