CCSDS_OMM_VERS = 2.0
CREATION_DATE  = 
ORIGINATOR     = 

OBJECT_NAME    = CZ-2C R/B
OBJECT_ID      = 2022-058K
CENTER_NAME    = EARTH
REF_FRAME      = TEME
TIME_SYSTEM    = UTC
MEAN_ELEMENT_THEORY = SGP/SGP4

EPOCH          = 2025-11-17T21:13:39.262080
MEAN_MOTION    = 15.46809505
ECCENTRICITY   = .0048297
INCLINATION    = 50.1897
RA_OF_ASC_NODE = 170.1416
ARG_OF_PERICENTER = 95.4750
MEAN_ANOMALY   = 265.1730

EPHEMERIS_TYPE = 0
CLASSIFICATION_TYPE = U
NORAD_CAT_ID   = 52794
ELEMENT_SET_NO = 999
REV_AT_EPOCH   = 19278
BSTAR          = .49421E-3
MEAN_MOTION_DOT = .2605E-3
MEAN_MOTION_DDOT = 0

CCSDS_OMM_VERS = 2.0
CREATION_DATE  = 
ORIGINATOR     = 

OBJECT_NAME    = CZ-2C R/B
OBJECT_ID      = 2022-132E
CENTER_NAME    = EARTH
REF_FRAME      = TEME
TIME_SYSTEM    = UTC
MEAN_ELEMENT_THEORY = SGP/SGP4

EPOCH          = 2025-11-17T22:33:58.826880
MEAN_MOTION    = 15.52895172
ECCENTRICITY   = .002325
INCLINATION    = 97.2949
RA_OF_ASC_NODE = 317.7040
ARG_OF_PERICENTER = 138.9820
MEAN_ANOMALY   = 221.3188

EPHEMERIS_TYPE = 0
CLASSIFICATION_TYPE = U
NORAD_CAT_ID   = 54039
ELEMENT_SET_NO = 999
REV_AT_EPOCH   = 17298
BSTAR          = .47637E-3
MEAN_MOTION_DOT = .299E-3
MEAN_MOTION_DDOT = 0

CCSDS_OMM_VERS = 2.0
CREATION_DATE  = 
ORIGINATOR     = 

OBJECT_NAME    = GSLV R/B
OBJECT_ID      = 2022-138AN
CENTER_NAME    = EARTH
REF_FRAME      = TEME
TIME_SYSTEM    = UTC
MEAN_ELEMENT_THEORY = SGP/SGP4

EPOCH          = 2025-11-18T04:10:24.305952
MEAN_MOTION    = 14.95954357
ECCENTRICITY   = .0020926
INCLINATION    = 87.3855
RA_OF_ASC_NODE = 203.6966
ARG_OF_PERICENTER = 190.1092
MEAN_ANOMALY   = 169.9721

EPHEMERIS_TYPE = 0
CLASSIFICATION_TYPE = U
NORAD_CAT_ID   = 54149
ELEMENT_SET_NO = 999
REV_AT_EPOCH   = 16725
BSTAR          = .2791E-3
MEAN_MOTION_DOT = .3166E-4
MEAN_MOTION_DDOT = 0

CCSDS_OMM_VERS = 2.0
CREATION_DATE  = 
ORIGINATOR     = 

OBJECT_NAME    = XRISM
OBJECT_ID      = 2023-137A
CENTER_NAME    = EARTH
REF_FRAME      = TEME
TIME_SYSTEM    = UTC
MEAN_ELEMENT_THEORY = SGP/SGP4

EPOCH          = 2025-11-18T02:44:58.243200
MEAN_MOTION    = 15.10001921
ECCENTRICITY   = .0007863
INCLINATION    = 31.0029
RA_OF_ASC_NODE = 284.4946
ARG_OF_PERICENTER = 354.4739
MEAN_ANOMALY   = 5.5811

EPHEMERIS_TYPE = 0
CLASSIFICATION_TYPE = U
NORAD_CAT_ID   = 57800
ELEMENT_SET_NO = 999
REV_AT_EPOCH   = 12090
BSTAR          = .43776E-3
MEAN_MOTION_DOT = .739E-4
MEAN_MOTION_DDOT = 0

